STARLINK-37231          
1 68624U 26073Y   26106.91805285 -.00728057  00000+0 -40652-2 0  9996
2 68624  97.2847 304.5649 0001907  50.7728 309.3709 15.81140045  1575
