{
  "norad_id": 68624,
  "name": "STARLINK-37231",
  "history": [
    {
      "epoch": "2026-04-16T22:01:59.766240Z",
      "apogee_km": 328.4943809564993,
      "perigee_km": 325.9366912851219,
      "latitude_deg": -3.956340186028903e-05,
      "longitude_deg": 129.00700648385597,
      "height_km": 329.58056002989315,
      "semi_major_axis_km": 6705.35253612081,
      "eccentricity": 0.00019072,
      "inclination_deg": 97.2847,
      "raan_deg": 304.5649,
      "arg_perigee_deg": 50.7728,
      "mean_anomaly_deg": 309.3709,
      "mean_motion_rev_day": 15.81140045
    }
  ]
}